OBJECT B                
1 51825U 22019B   24150.93538286  .00010062  00000+0  44852-3 0  9995
2 51825  97.4289 222.5043 0012961 304.8582  55.1435 15.21540762124451
